STARLINK-2282_new
1 18018C 21024AT  21326.18062780  .00002249  00000-0  15069-3 0  3261
2 18018  53.0521 162.9234 0001595  78.0706 311.8950 15.06397371    14
STARLINK-2282_old
1 28018C 21024AT  21325.08714677  .00006830  00000-0  45765-3 0  3253
2 28018  53.0519 167.8324 0001587  76.4270 140.2851 15.06388338    11
